OBJECT_NAME,OBJECT_ID,EPOCH,MEAN_MOTION,ECCENTRICITY,INCLINATION,RA_OF_ASC_NODE,ARG_OF_PERICENTER,MEAN_ANOMALY,EPHEMERIS_TYPE,CLASSIFICATION_TYPE,NORAD_CAT_ID,ELEMENT_SET_NO,REV_AT_EPOCH,BSTAR,MEAN_MOTION_DOT,MEAN_MOTION_DDOT
GONETS-M 14,2019-096A,2026-07-15T05:20:29.754240,12.42871201,.0014419,82.5223,67.2586,90.4263,269.8469,0,U,44905,999,29716,.10682E-2,.158E-5,0
GONETS-M 15,2019-096B,2026-07-15T04:06:48.528000,12.42883145,.0016097,82.5243,67.7562,112.2800,247.9988,0,U,44906,999,29712,.44975E-3,.72E-6,0
GONETS-M 16,2019-096C,2026-07-15T02:48:03.413088,12.42892610,.0011017,82.5188,66.7292,151.4578,208.7107,0,U,44907,999,29710,.60184E-3,.93E-6,0
JILIN-1 KUANFU 01,2020-003A,2026-07-15T04:03:40.876704,15.10866958,.0009247,97.5021,269.5793,196.9766,163.1156,0,U,45016,999,35955,.93497E-4,.1493E-4,0
XINGYUN-2 01,2020-028A,2026-07-15T03:19:25.313952,15.11912656,.0010901,97.4868,187.9880,104.0714,256.1729,0,U,45602,999,33906,.3964E-4,.616E-5,0
XINGYUN-2 02,2020-028B,2026-07-15T04:31:11.764704,15.11638305,.001117,97.5070,201.6894,165.3255,194.8302,0,U,45603,999,33906,.41506E-4,.642E-5,0
HAIYANG-1D,2020-036A,2026-07-15T03:48:37.364256,14.34182147,.0004047,98.4559,137.2316,70.3303,289.8319,0,U,45721,999,31898,.75762E-4,.169E-5,0
M2 PATHFINDER,2020-037E,2026-07-15T02:37:12.702720,15.04791269,.0012931,97.8142,27.6568,62.8086,297.4456,0,U,45727,999,32969,.50934E-4,.655E-5,0
GAOFEN DUOMO (GFDM),2020-042A,2026-07-15T04:31:29.368704,14.76802347,.0010765,97.7736,255.0543,353.1996,6.9066,0,U,45856,999,32514,.73349E-4,.466E-5,0
ZIYUAN 3-03 (ZY 3-03),2020-051A,2026-07-15T04:53:45.459168,15.21196340,.0002855,97.5370,263.2220,247.6538,112.4395,0,U,45939,999,33160,-.18045E-4,-.472E-5,0
NEMO-HD,2020-061F,2026-07-15T04:13:54.454080,15.45138603,.0000987,97.1905,257.8545,95.8920,264.2442,0,U,46277,999,32630,.13984E-3,.6536E-4,0
3CAT-5A,2020-061W,2026-07-15T04:37:28.587072,15.46943966,.0002423,97.2390,259.0660,70.6104,289.5408,0,U,46292,999,32535,.19956E-3,.9966E-4,0
3CAT-5B,2020-061X,2026-07-15T03:36:49.146048,15.48396087,.000248,97.2380,260.0631,63.7748,296.3758,0,U,46293,999,32538,.20433E-3,.10737E-3,0
NAPA-1,2020-061BA,2026-07-15T04:58:49.372896,15.71967834,.0002603,97.2445,271.3852,176.7547,183.3734,0,U,46320,999,32613,.42166E-3,.5506E-3,0
JILIN-1 GAOFEN 3E,2020-065D,2026-07-15T03:44:56.459328,15.67225913,.0010235,97.2210,249.4796,72.3027,287.9351,0,U,46457,999,32413,.44669E-3,.48069E-3,0
JILIN-1 GAOFEN 3F,2020-065E,2026-07-15T04:05:50.202816,15.63940618,.001158,97.2165,246.6855,58.2524,301.9863,0,U,46458,999,32407,.43528E-3,.41088E-3,0
JILIN-1 GAOFEN 3G,2020-065F,2026-07-15T04:25:02.224128,15.76924985,.0005315,97.2220,254.0217,273.2990,86.7668,0,U,46459,999,32434,.52267E-3,.84854E-3,0
JILIN-1 GAOFEN 3H,2020-065G,2026-07-15T03:55:58.068192,15.72267157,.0006452,97.2170,250.1356,202.4058,157.6924,0,U,46460,999,32427,.49532E-3,.65667E-3,0
HAIYANG-2C,2020-066A,2026-07-15T05:11:13.602624,13.83372707,.0007632,65.9964,145.4984,237.1031,122.9303,0,U,46469,999,29337,-.38737E-4,-.124E-5,0
HJ-2A,2020-067A,2026-07-15T03:40:30.186624,14.76547782,.0004155,97.8828,273.8632,155.6791,204.4616,0,U,46478,999,31238,-.1137E-5,-.58E-6,0
HJ-2B,2020-067B,2026-07-15T04:33:05.742720,14.76511468,.0001955,97.8894,274.9430,106.0560,254.0865,0,U,46479,999,31239,.90684E-4,.582E-5,0
GONETS-M 17,2020-068A,2026-07-15T03:24:41.698656,12.42873557,.0021831,82.5008,330.1104,336.7529,23.2561,0,U,46486,999,26263,-.94063E-3,-.121E-5,0
GONETS-M 18,2020-068B,2026-07-15T04:28:15.695328,12.42874938,.0019069,82.4963,329.1902,333.2337,26.7757,0,U,46487,999,26262,-.70411E-4,0,0
GONETS-M 19,2020-068C,2026-07-15T03:52:17.978880,12.42892535,.0013059,82.4987,329.6613,350.1910,9.8913,0,U,46488,999,26272,-.55189E-3,-.67E-6,0
DEKART,2020-068H,2026-07-15T04:32:36.346848,15.37949014,.000925,97.8736,207.4775,172.7544,187.3835,0,U,46493,999,32007,.1864E-3,.6872E-4,0
NORBI,2020-068J,2026-07-15T04:37:01.111872,15.49620546,.0008324,97.8610,214.6502,143.6710,216.5106,0,U,46494,999,32054,.25866E-3,.14224E-3,0
SALSAT,2020-068K,2026-07-15T00:09:24.300864,15.30170520,.0009152,97.8854,200.7735,193.6321,166.4672,0,U,46495,999,31961,.14518E-3,.4157E-4,0
ICEYE-X6,2020-068M,2026-07-15T04:32:58.980192,15.04667159,.0007227,98.0989,191.2035,10.5370,349.6005,0,U,46497,999,31744,.11815E-3,.1594E-4,0
NETSAT-4,2020-068U,2026-07-14T23:40:51.220416,15.44752306,.0004715,97.8600,206.4803,194.0018,166.1099,0,U,46504,999,32006,.22994E-3,.10657E-3,0
