1 44905U 19096A   26196.22256660  .00000158  00000-0  10682-2 0  9993
2 44905  82.5223  67.2586 0014419  90.4263 269.8469 12.42871201297160
1 44906U 19096B   26196.17139500  .00000072  00000-0  44975-3 0  9999
2 44906  82.5243  67.7562 0016097 112.2800 247.9988 12.42883145297125
1 44907U 19096C   26196.11670617  .00000093  00000-0  60184-3 0  9996
2 44907  82.5188  66.7292 0011017 151.4578 208.7107 12.42892610297100
1 45016U 20003A   26196.16922311  .00001493  00000-0  93497-4 0  9993
2 45016  97.5021 269.5793 0009247 196.9766 163.1156 15.10866958359558
1 45602U 20028A   26196.13848743  .00000616  00000-0  39640-4 0  9990
2 45602  97.4868 187.9880 0010901 104.0714 256.1729 15.11912656339060
1 45603U 20028B   26196.18833061  .00000642  00000-0  41506-4 0  9996
2 45603  97.5070 201.6894 0011170 165.3255 194.8302 15.11638305339066
1 45721U 20036A   26196.15876579  .00000169  00000-0  75762-4 0  9999
2 45721  98.4559 137.2316 0004047  70.3303 289.8319 14.34182147318989
1 45727U 20037E   26196.10917480  .00000655  00000-0  50934-4 0  9992
2 45727  97.8142  27.6568 0012931  62.8086 297.4456 15.04791269329698
1 45856U 20042A   26196.18853436  .00000466  00000-0  73349-4 0  9994
2 45856  97.7736 255.0543 0010765 353.1996   6.9066 14.76802347325142
1 45939U 20051A   26196.20399837 -.00000472  00000-0 -18045-4 0  9990
2 45939  97.5370 263.2220 0002855 247.6538 112.4395 15.21196340331605
1 46277U 20061F   26196.17632470  .00006536  00000-0  13984-3 0  9997
2 46277  97.1905 257.8545 0000987  95.8920 264.2442 15.45138603326306
1 46292U 20061W   26196.19269198  .00009966  00000-0  19956-3 0  9994
2 46292  97.2390 259.0660 0002423  70.6104 289.5408 15.46943966325359
1 46293U 20061X   26196.15056882  .00010737  00000-0  20433-3 0  9995
2 46293  97.2380 260.0631 0002480  63.7748 296.3758 15.48396087325384
1 46320U 20061BA  26196.20751589  .00055060  00000-0  42166-3 0  9993
2 46320  97.2445 271.3852 0002603 176.7547 183.3734 15.71967834326139
1 46457U 20065D   26196.15620902  .00048069  00000-0  44669-3 0  9997
2 46457  97.2210 249.4796 0010235  72.3027 287.9351 15.67225913324131
1 46458U 20065E   26196.17071994  .00041088  00000-0  43528-3 0  9998
2 46458  97.2165 246.6855 0011580  58.2524 301.9863 15.63940618324075
1 46459U 20065F   26196.18405352  .00084854  00000-0  52267-3 0  9997
2 46459  97.2220 254.0217 0005315 273.2990  86.7668 15.76924985324342
1 46460U 20065G   26196.16386653  .00065667  00000-0  49532-3 0  9991
2 46460  97.2170 250.1356 0006452 202.4058 157.6924 15.72267157324273
1 46469U 20066A   26196.21612966 -.00000124  00000-0 -38737-4 0  9991
2 46469  65.9964 145.4984 0007632 237.1031 122.9303 13.83372707293375
1 46478U 20067A   26196.15312716 -.00000058  00000-0 -11370-5 0  9996
2 46478  97.8828 273.8632 0004155 155.6791 204.4616 14.76547782312384
1 46479U 20067B   26196.18964980  .00000582  00000-0  90684-4 0  9990
2 46479  97.8894 274.9430 0001955 106.0560 254.0865 14.76511468312395
1 46486U 20068A   26196.14214929 -.00000121  00000-0 -94063-3 0  9991
2 46486  82.5008 330.1104 0021831 336.7529  23.2561 12.42873557262637
1 46487U 20068B   26196.18629277  .00000000  00000-0 -70411-4 0  9999
2 46487  82.4963 329.1902 0019069 333.2337  26.7757 12.42874938262628
1 46488U 20068C   26196.16131920 -.00000067  00000-0 -55189-3 0  9999
2 46488  82.4987 329.6613 0013059 350.1910   9.8913 12.42892535262727
1 46493U 20068H   26196.18930957  .00006872  00000-0  18640-3 0  9993
2 46493  97.8736 207.4775 0009250 172.7544 187.3835 15.37949014320076
1 46494U 20068J   26196.19237398  .00014224  00000-0  25866-3 0  9992
2 46494  97.8610 214.6502 0008324 143.6710 216.5106 15.49620546320546
1 46495U 20068K   26196.00653126  .00004157  00000-0  14518-3 0  9990
2 46495  97.8854 200.7735 0009152 193.6321 166.4672 15.30170520319613
1 46497U 20068M   26196.18957153  .00001594  00000-0  11815-3 0  9997
2 46497  98.0989 191.2035 0007227  10.5370 349.6005 15.04667159317440
1 46504U 20068U   26195.98670394  .00010657  00000-0  22994-3 0  9992
2 46504  97.8600 206.4803 0004715 194.0018 166.1099 15.44752306320064
